NORAD_CAT_ID,OBJECT_NAME,OBJECT_TYPE,EPOCH,MEAN_MOTION,ECCENTRICITY,INCLINATION,RA_OF_ASC_NODE,ARG_OF_PERICENTER,MEAN_ANOMALY,BSTAR,MEAN_MOTION_DOT,MEAN_MOTION_DDOT,TLE_LINE0,TLE_LINE1,TLE_LINE2,SEMIMAJOR_AXIS,PERIOD,APOGEE,PERIGEE,DECAYED
53145.0,STARLINK-4106,PAYLOAD,2023-01-05 07:12:38,15.08845472,0.0002683999999999,53.2196,338.8176,31.4363,328.6789,0.00015724,2.215e-05,0.0,0 STARLINK-4106,1 53145U 22083P   23005.30044603  .00002215  00000-0  15724-3 0  9995,2 53145  53.2196 338.8176 0002684  31.4363 328.6789 15.08845472 26827,6917.864000000001,95.437,541.585,537.872,0.0
53145.0,STARLINK-4106,PAYLOAD,2023-01-05 15:09:34,15.08832668,0.000254,53.219,337.3297,32.2684,327.8463,-2.8866e-05,-7.48e-06,0.0,0 STARLINK-4106,1 53145U 22083P   23005.63165316 -.00000748  00000-0 -28866-4 0  9999,2 53145  53.2190 337.3297 0002540  32.2684 327.8463 15.08832668 26244,6917.903,95.438,541.525,538.011,0.0
53145.0,STARLINK-4106,PAYLOAD,2023-01-06 07:03:26,15.08835736,0.0002707,53.219,334.3556,38.1212,321.9971,6.1238e-05,6.86e-06,0.0,0 STARLINK-4106,1 53145U 22083P   23006.29405626  .00000686  00000-0  61238-4 0  9992,2 53145  53.2190 334.3556 0002707  38.1212 321.9971 15.08835736 26345,6917.893,95.438,541.631,537.886,0.0
53145.0,STARLINK-4106,PAYLOAD,2023-01-07 03:43:27,15.08836202,0.0002271,53.2189,330.4906,43.1753,316.9417,0.0001262999999999,1.722e-05,0.0,0 STARLINK-4106,1 53145U 22083P   23007.15518011  .00001722  00000-0  12630-3 0  9994,2 53145  53.2189 330.4906 0002271  43.1753 316.9417 15.08836202 27104,6917.892,95.438,541.328,538.186,0.0
53145.0,STARLINK-4106,PAYLOAD,2023-01-07 14:51:09,15.08845912,0.0002162,53.2183,328.409,47.1702,312.9472,0.00017743,2.537e-05,0.0,0 STARLINK-4106,1 53145U 22083P   23007.61885599  .00002537  00000-0  17743-3 0  9998,2 53145  53.2183 328.4090 0002162  47.1702 312.9472 15.08845912 27178,6917.861999999999,95.437,541.2230000000002,538.232,0.0
53145.0,STARLINK-4106,PAYLOAD,2023-01-07 21:12:42,15.08840598,0.000223,53.217,327.2189,50.3673,309.7515,0.00023776,3.498e-05,0.0,0 STARLINK-4106,1 53145U 22083P   23007.88381996  .00003498  00000-0  23776-3 0  9999,2 53145  53.2170 327.2189 0002230  50.3673 309.7515 15.08840598 26580,6917.879,95.438,541.286,538.201,0.0
53145.0,STARLINK-4106,PAYLOAD,2023-01-08 06:45:00,15.08851542,0.0002229,53.218,325.4343,55.4094,304.7109,0.00029669,4.438e-05,0.0,0 STARLINK-4106,1 53145U 22083P   23008.28125452  .00004438  00000-0  29669-3 0  9999,2 53145  53.2180 325.4343 0002229  55.4094 304.7109 15.08851542 26646,6917.845,95.437,541.252,538.168,0.0
53145.0,STARLINK-4106,PAYLOAD,2023-01-08 21:03:28,15.08844488,0.0002686,53.2175,322.7596,59.8984,300.2274,9.6236e-05,1.244e-05,0.0,0 STARLINK-4106,1 53145U 22083P   23008.87741853  .00001244  00000-0  96236-4 0  9990,2 53145  53.2175 322.7596 0002686  59.8984 300.2274 15.08844488 27368,6917.866999999998,95.437,541.59,537.874,0.0
53145.0,STARLINK-4106,PAYLOAD,2023-01-09 06:35:47,15.0884677,0.0002771,53.2176,320.9757,61.846,298.2812,0.00013744,1.9e-05,0.0,0 STARLINK-4106,1 53145U 22083P   23009.27485710  .00001900  00000-0  13744-3 0  9993,2 53145  53.2176 320.9757 0002771  61.8460 298.2812 15.08846770 26791,6917.86,95.437,541.6419999999998,537.808,0.0
53145.0,STARLINK-4106,PAYLOAD,2023-01-09 20:54:15,15.0884004,0.0002366,53.217,318.2956,85.8215,274.3048,-3.293e-07,-2.94e-06,0.0,0 STARLINK-4106,1 53145U 22083P   23009.87101741 -.00000294  00000-0 -32930-6 0  9996,2 53145  53.2170 318.2956 0002366  85.8215 274.3048 15.08840040 26880,6917.88,95.438,541.382,538.1080000000002,0.0
53145.0,STARLINK-4106,PAYLOAD,2023-01-10 04:51:11,15.08849034,0.0002054,53.2187,316.8135,61.5474,298.5724,0.00019963,2.891e-05,0.0,0 STARLINK-4106,1 53145U 22083P   23010.20221414  .00002891  00000-0  19963-3 0  9996,2 53145  53.2187 316.8135 0002054  61.5474 298.5724 15.08849034 27560,6917.853,95.437,541.139,538.297,0.0
53145.0,STARLINK-4106,PAYLOAD,2023-01-10 12:48:06,15.08855046,0.0002058,53.2184,315.3268,65.0516,295.069,0.00048619,7.461e-05,0.0,0 STARLINK-4106,1 53145U 22083P   23010.53341266  .00007461  00000-0  48619-3 0  9998,2 53145  53.2184 315.3268 0002058  65.0516 295.0690 15.08855046 26987,6917.834,95.437,541.123,538.276,0.0
53145.0,STARLINK-4106,PAYLOAD,2023-01-10 19:09:39,15.08843173,0.0002326,53.2177,314.1367,70.8191,289.3053,0.00029307,4.379e-05,0.0,0 STARLINK-4106,1 53145U 22083P   23010.79837847  .00004379  00000-0  29307-3 0  9999,2 53145  53.2177 314.1367 0002326  70.8191 289.3053 15.08843173 27659,6917.871,95.437,541.345,538.127,0.0
53145.0,STARLINK-4106,PAYLOAD,2023-01-10 20:45:03,15.08843884,0.0002214,53.2166,313.8393,80.6284,279.4958,0.0003587,5.426e-05,0.0,0 STARLINK-4106,1 53145U 22083P   23010.86461929  .00005426  00000-0  35870-3 0  9997,2 53145  53.2166 313.8393 0002214  80.6284 279.4958 15.08843884 27035,6917.8690000000015,95.437,541.265,538.202,0.0
53145.0,STARLINK-4106,PAYLOAD,2023-01-11 12:38:54,15.08844648,0.0002098,53.2175,310.866,77.5266,282.5961,0.00035343,5.342e-05,0.0,0 STARLINK-4106,1 53145U 22083P   23011.52701694  .00005342  00000-0  35343-3 0  9999,2 53145  53.2175 310.8660 0002098  77.5266 282.5961 15.08844648 27133,6917.866,95.437,541.183,538.28,0.0
53145.0,STARLINK-4106,PAYLOAD,2023-01-11 20:35:50,15.08833788,0.0001811,53.2179,309.3802,83.8477,276.2721,-3.3553e-05,-8.22e-06,0.0,0 STARLINK-4106,1 53145U 22083P   23011.85821984 -.00000822  00000-0 -33553-4 0  9992,2 53145  53.2179 309.3802 0001811  83.8477 276.2721 15.08833788 27186,6917.899,95.438,541.0169999999998,538.512,0.0
53145.0,STARLINK-4106,PAYLOAD,2023-01-12 02:57:22,15.08846641,0.0001701,53.218,308.1913,90.1245,269.9942,0.00088277,0.00013792,0.0,0 STARLINK-4106,1 53145U 22083P   23012.12317893  .00013792  00000-0  88277-3 0  9992,2 53145  53.2180 308.1913 0001701  90.1245 269.9942 15.08846641 27850,6917.86,95.437,540.9019999999998,538.548,0.0
53145.0,STARLINK-4106,PAYLOAD,2023-01-12 20:26:37,15.088457,0.0001648,53.2168,304.9196,86.9081,273.2099,0.00069128,0.00010733,0.0,0 STARLINK-4106,1 53145U 22083P   23012.85182137  .00010733  00000-0  69128-3 0  9999,2 53145  53.2168 304.9196 0001648  86.9081 273.2099 15.08845700 27962,6917.863,95.437,540.868,538.5880000000002,0.0
53145.0,STARLINK-4106,PAYLOAD,2023-01-13 02:48:10,15.08843914,0.0001889999999999,53.2179,303.7303,85.8303,274.2905,0.00033929,5.116e-05,0.0,0 STARLINK-4106,1 53145U 22083P   23013.11678284  .00005116  00000-0  33929-3 0  9991,2 53145  53.2179 303.7303 0001890  85.8303 274.2905 15.08843914 28003,6917.868,95.437,541.0409999999999,538.4259999999999,0.0
53145.0,STARLINK-4106,PAYLOAD,2023-01-13 18:42:01,15.088397199999998,0.0001484,53.2176,300.7562,99.5275,260.5885,0.0002066999999999,3.003e-05,0.0,0 STARLINK-4106,1 53145U 22083P   23013.77918304  .00003003  00000-0  20670-3 0  9995,2 53145  53.2176 300.7562 0001484  99.5275 260.5885 15.08839720 28109,6917.880999999999,95.438,540.773,538.72,0.0
53145.0,STARLINK-4106,PAYLOAD,2023-01-14 04:14:19,15.08860391,0.0001646,53.2162,298.9723,85.7766,274.3414,0.0008456,0.00013203,0.0,0 STARLINK-4106,1 53145U 22083P   23014.17661999  .00013203  00000-0  84560-3 0  9996,2 53145  53.2162 298.9723 0001646  85.7766 274.3414 15.08860391 28168,6917.818,95.436,540.822,538.544,0.0
53145.0,STARLINK-4106,PAYLOAD,2023-01-14 18:32:48,15.08844463,0.000235,53.2177,296.2974,72.4229,287.702,0.00022147,3.239e-05,0.0,0 STARLINK-4106,1 53145U 22083P   23014.77278758  .00003239  00000-0  22147-3 0  9990,2 53145  53.2177 296.2974 0002350  72.4229 287.7020 15.08844463 28256,6917.866999999999,95.437,541.357,538.106,0.0
53145.0,STARLINK-4106,PAYLOAD,2023-01-15 00:54:21,15.08853182,0.0002159,53.2165,295.1089,69.9207,290.2018,0.00059391,9.18e-05,0.0,0 STARLINK-4106,1 53145U 22083P   23015.03774434  .00009180  00000-0  59391-3 0  9994,2 53145  53.2165 295.1089 0002159  69.9207 290.2018 15.08853182 28290,6917.84,95.437,541.1990000000001,538.212,0.0
53145.0,STARLINK-4106,PAYLOAD,2023-01-15 12:02:03,15.08845348,0.0002287,53.216,293.0274,66.8978,293.2255,0.00043448,6.634e-05,0.0,0 STARLINK-4106,1 53145U 22083P   23015.50142499  .00006634  00000-0  43448-3 0  9993,2 53145  53.2160 293.0274 0002287  66.8978 293.2255 15.08845348 27730,6917.8640000000005,95.437,541.311,538.1469999999999,0.0
53145.0,STARLINK-4106,PAYLOAD,2023-01-15 18:23:35,15.08850954,0.0002075,53.2156,291.8352,73.7436,286.3784,0.00042127,6.425e-05,0.0,0 STARLINK-4106,1 53145U 22083P   23015.76638148  .00006425  00000-0  42127-3 0  9993,2 53145  53.2156 291.8352 0002075  73.7436 286.3784 15.08850954 28403,6917.847,95.437,541.1469999999999,538.276,0.0
53145.0,STARLINK-4106,PAYLOAD,2023-01-15 21:34:21,15.0885876,0.000155,53.2159,291.2405,75.0557,285.0606,0.00064474,9.993e-05,0.0,0 STARLINK-4106,1 53145U 22083P   23015.89885693  .00009993  00000-0  64474-3 0  9998,2 53145  53.2159 291.2405 0001550  75.0557 285.0606 15.08858760 27798,6917.823,95.436,540.76,538.616,0.0
53145.0,STARLINK-4106,PAYLOAD,2023-01-16 00:45:07,15.08875807,0.0001604,53.2167,290.6453,82.1816,277.9358,0.0011535,0.00018136,0.0,0 STARLINK-4106,1 53145U 22083P   23016.03133349  .00018136  00000-0  11535-2 0  9997,2 53145  53.2167 290.6453 0001604  82.1816 277.9358 15.08875807 28448,6917.771,95.435,540.746,538.526,0.0
53145.0,STARLINK-4106,PAYLOAD,2023-01-16 18:14:22,15.0884182,0.0001799,53.2149,287.3759,66.0087,294.1093,7.5777e-05,9.18e-06,0.0,0 STARLINK-4106,1 53145U 22083P   23016.75997940  .00000918  00000-0  75777-4 0  9990,2 53145  53.2149 287.3759 0001799  66.0087 294.1093 15.08841820 28553,6917.875,95.437,540.984,538.495,0.0
53145.0,STARLINK-4106,PAYLOAD,2023-01-17 03:46:41,15.08829404,0.0001268,53.22,285.5899,69.4394,290.6735,-0.00015586,-2.767e-05,0.0,0 STARLINK-4106,1 53145U 22083P   23017.15742439 -.00002767  00000-0 -15586-3 0  9993,2 53145  53.2200 285.5899 0001268  69.4394 290.6735 15.08829404 28610,6917.9130000000005,95.438,540.655,538.901,0.0
